LEMUR-2 JOEL------------
1 40932U 15052C   19324.60282689 +.00000878 +00000-0 +31200-4 0  9994
2 40932 006.0090 015.7737 0014004 225.4279 134.4704 14.77896868224347